start=new Date('2023-02-02T00:00:00.000Z').valueOf();
sats=[{"MEAN_MOTION_DOT":"0.00006478","FILE":"3767684","LAUNCH_DATE":"2022-03-03","CENTER_NAME":"EARTH","DECAY_DATE":null,"PERIAPSIS":"538.763","ARG_OF_PERICENTER":"91.7866","ELEMENT_SET_NO":"999","CLASSIFICATION_TYPE":"U","MEAN_ELEMENT_THEORY":"SGP4","REV_AT_EPOCH":"5238","INCLINATION":"53.2155","REF_FRAME":"TEME","BSTAR":"0.00042451000000","SEMIMAJOR_AXIS":"6917.829","MEAN_MOTION_DDOT":"0.0000000000000","EPHEMERIS_TYPE":"0","SITE":"AFETR","OBJECT_ID":"2022-022AT","RA_OF_ASC_NODE":"41.7468","TLE_LINE2":"2 51893  53.2155  41.7468 0001346  91.7866 268.3280 15.08856734 52384","GP_ID":"224203482","EPOCH":"2023-02-01T11:53:06.772128","COUNTRY_CODE":"US","TLE_LINE1":"1 51893U 22022AT  23032.49521727  .00006478  00000-0  42451-3 0  9995","RCS_SIZE":"LARGE","APOAPSIS":"540.625","OBJECT_TYPE":"PAYLOAD","MEAN_MOTION":"15.08856734","PERIOD":"95.436","OBJECT_NAME":"STARLINK-3579","TIME_SYSTEM":"UTC","ECCENTRICITY":"0.00013460","NORAD_CAT_ID":"51893","MEAN_ANOMALY":"268.3280"},{"EPHEMERIS_TYPE":"0","SITE":"AFETR","MEAN_MOTION_DDOT":"0.0000000000000","REF_FRAME":"TEME","BSTAR":"0.00015841000000","SEMIMAJOR_AXIS":"6917.861","GP_ID":"224198771","TLE_LINE2":"2 51894  53.2148  42.0258 0001455 100.9943 259.1212 15.08846415 52375","RA_OF_ASC_NODE":"42.0258","OBJECT_ID":"2022-022AU","ARG_OF_PERICENTER":"100.9943","DECAY_DATE":null,"PERIAPSIS":"538.719","LAUNCH_DATE":"2022-03-03","FILE":"3767525","CENTER_NAME":"EARTH","MEAN_MOTION_DOT":"0.00002234","MEAN_ELEMENT_THEORY":"SGP4","REV_AT_EPOCH":"5237","INCLINATION":"53.2148","CLASSIFICATION_TYPE":"U","ELEMENT_SET_NO":"999","OBJECT_NAME":"STARLINK-3595","PERIOD":"95.437","MEAN_MOTION":"15.08846415","MEAN_ANOMALY":"259.1212","NORAD_CAT_ID":"51894","TIME_SYSTEM":"UTC","ECCENTRICITY":"0.00014550","TLE_LINE1":"1 51894U 22022AU  23032.43265835  .00002234  00000-0  15841-3 0  9994","EPOCH":"2023-02-01T10:23:01.681440","COUNTRY_CODE":"US","APOAPSIS":"540.732","OBJECT_TYPE":"PAYLOAD","RCS_SIZE":"LARGE"},{"ARG_OF_PERICENTER":"85.7374","PERIAPSIS":"538.891","DECAY_DATE":null,"FILE":"3767684","LAUNCH_DATE":"2022-03-03","CENTER_NAME":"EARTH","MEAN_MOTION_DOT":"0.00000202","REV_AT_EPOCH":"5236","MEAN_ELEMENT_THEORY":"SGP4","INCLINATION":"53.2172","CLASSIFICATION_TYPE":"U","ELEMENT_SET_NO":"999","SITE":"AFETR","EPHEMERIS_TYPE":"0","MEAN_MOTION_DDOT":"0.0000000000000","SEMIMAJOR_AXIS":"6917.883","REF_FRAME":"TEME","BSTAR":"0.00003078300000","GP_ID":"224203471","TLE_LINE2":"2 51895  53.2172  40.5727 0001240  85.7374 274.3760 15.08838985 52366","RA_OF_ASC_NODE":"40.5727","OBJECT_ID":"2022-022AV","TLE_LINE1":"1 51895U 22022AV  23032.75650291  .00000202  00000-0  30783-4 0  9990","COUNTRY_CODE":"US","EPOCH":"2023-02-01T18:09:21.851424","OBJECT_TYPE":"PAYLOAD","APOAPSIS":"540.606","RCS_SIZE":"LARGE","OBJECT_NAME":"STARLINK-3594","PERIOD":"95.438","MEAN_MOTION":"15.08838985","MEAN_ANOMALY":"274.3760","NORAD_CAT_ID":"51895","TIME_SYSTEM":"UTC","ECCENTRICITY":"0.00012400"},{"OBJECT_NAME":"STARLINK-3593","PERIOD":"95.437","MEAN_MOTION":"15.08845658","MEAN_ANOMALY":"270.0140","NORAD_CAT_ID":"51896","TIME_SYSTEM":"UTC","ECCENTRICITY":"0.00012380","TLE_LINE1":"1 51896U 22022AW  23032.75745693  .00000717  00000-0  63124-4 0  9998","EPOCH":"2023-02-01T18:10:44.278752","COUNTRY_CODE":"US","OBJECT_TYPE":"PAYLOAD","APOAPSIS":"540.585","RCS_SIZE":"LARGE","SITE":"AFETR","EPHEMERIS_TYPE":"0","MEAN_MOTION_DDOT":"0.0000000000000","REF_FRAME":"TEME","BSTAR":"0.00006312400000","SEMIMAJOR_AXIS":"6917.863","GP_ID":"224203971","TLE_LINE2":"2 51896  53.2163  40.5686 0001238  90.0994 270.0140 15.08845658 52411","RA_OF_ASC_NODE":"40.5686","OBJECT_ID":"2022-022AW","ARG_OF_PERICENTER":"90.0994","PERIAPSIS":"538.872","DECAY_DATE":null,"LAUNCH_DATE":"2022-03-03","FILE":"3767684","CENTER_NAME":"EARTH","MEAN_MOTION_DOT":"0.00000717","REV_AT_EPOCH":"5241","MEAN_ELEMENT_THEORY":"SGP4","INCLINATION":"53.2163","ELEMENT_SET_NO":"999","CLASSIFICATION_TYPE":"U"},{"TLE_LINE2":"2 51897  53.2173  40.5908 0001934  74.6562 285.4644 15.08835906 52360","RA_OF_ASC_NODE":"40.5908","OBJECT_ID":"2022-022AX","GP_ID":"224205022","MEAN_MOTION_DDOT":"0.0000000000000","SEMIMAJOR_AXIS":"6917.893","BSTAR":"0.00003472600000","REF_FRAME":"TEME","SITE":"AFETR","EPHEMERIS_TYPE":"0","ELEMENT_SET_NO":"999","CLASSIFICATION_TYPE":"U","REV_AT_EPOCH":"5236","MEAN_ELEMENT_THEORY":"SGP4","INCLINATION":"53.2173","CENTER_NAME":"EARTH","FILE":"3767703","LAUNCH_DATE":"2022-03-03","MEAN_MOTION_DOT":"0.00000264","ARG_OF_PERICENTER":"74.6562","PERIAPSIS":"538.420","DECAY_DATE":null,"ECCENTRICITY":"0.00019340","TIME_SYSTEM":"UTC","MEAN_ANOMALY":"285.4644","NORAD_CAT_ID":"51897","MEAN_MOTION":"15.08835906","PERIOD":"95.438","OBJECT_NAME":"STARLINK-3598","APOAPSIS":"541.096","OBJECT_TYPE":"PAYLOAD","RCS_SIZE":"LARGE","COUNTRY_CODE":"US","EPOCH":"2023-02-01T18:04:04.381536","TLE_LINE1":"1 51897U 22022AX  23032.75282849  .00000264  00000-0  34726-4 0  9991"},{"MEAN_ANOMALY":"260.3350","NORAD_CAT_ID":"51898","TIME_SYSTEM":"UTC","ECCENTRICITY":"0.00012010","OBJECT_NAME":"STARLINK-3597","PERIOD":"95.437","MEAN_MOTION":"15.08841045","OBJECT_TYPE":"PAYLOAD","APOAPSIS":"540.573","RCS_SIZE":"LARGE","TLE_LINE1":"1 51898U 22022AY  23032.28546126  .00001720  00000-0  12612-3 0  9998","EPOCH":"2023-02-01T06:51:03.852864","COUNTRY_CODE":"US","GP_ID":"224164419","TLE_LINE2":"2 51898  53.2147  42.6826 0001201  99.7778 260.3350 15.08841045 52343","RA_OF_ASC_NODE":"42.6826","OBJECT_ID":"2022-022AY","EPHEMERIS_TYPE":"0","SITE":"AFETR","MEAN_MOTION_DDOT":"0.0000000000000","BSTAR":"0.00012612000000","REF_FRAME":"TEME","SEMIMAJOR_AXIS":"6917.877","INCLINATION":"53.2147","REV_AT_EPOCH":"5234","MEAN_ELEMENT_THEORY":"SGP4","CLASSIFICATION_TYPE":"U","ELEMENT_SET_NO":"999","ARG_OF_PERICENTER":"99.7778","DECAY_DATE":null,"PERIAPSIS":"538.911","FILE":"3767087","LAUNCH_DATE":"2022-03-03","CENTER_NAME":"EARTH","MEAN_MOTION_DOT":"0.00001720"},{"ELEMENT_SET_NO":"999","CLASSIFICATION_TYPE":"U","REV_AT_EPOCH":"5025","MEAN_ELEMENT_THEORY":"SGP4","INCLINATION":"53.2155","MEAN_MOTION_DOT":"0.00001044","CENTER_NAME":"EARTH","FILE":"3767525","LAUNCH_DATE":"2022-03-09","PERIAPSIS":"538.713","DECAY_DATE":null,"ARG_OF_PERICENTER":"83.3687","OBJECT_ID":"2022-025A","RA_OF_ASC_NODE":"72.2870","TLE_LINE2":"2 51956  53.2155  72.2870 0001467  83.3687 276.7472 15.08845645 50251","GP_ID":"224197523","BSTAR":"0.00008365000000","REF_FRAME":"TEME","SEMIMAJOR_AXIS":"6917.863","MEAN_MOTION_DDOT":"0.0000000000000","EPHEMERIS_TYPE":"0","SITE":"AFETR","RCS_SIZE":"LARGE","APOAPSIS":"540.743","OBJECT_TYPE":"PAYLOAD","EPOCH":"2023-02-01T08:59:34.123200","COUNTRY_CODE":"US","TLE_LINE1":"1 51956U 22025A   23032.37470050  .00001044  00000-0  83650-4 0  9998","ECCENTRICITY":"0.00014670","TIME_SYSTEM":"UTC","NORAD_CAT_ID":"51956","MEAN_ANOMALY":"276.7472","PERIOD":"95.437","MEAN_MOTION":"15.08845645","OBJECT_NAME":"STARLINK-3700"},{"EPOCH":"2023-02-01T10:08:27.664224","COUNTRY_CODE":"US","TLE_LINE1":"1 51957U 22025B   23032.42254241  .00003956  00000-0  26646-3 0  9992","RCS_SIZE":"LARGE","OBJECT_TYPE":"PAYLOAD","APOAPSIS":"540.678","PERIOD":"95.437","MEAN_MOTION":"15.08846972","OBJECT_NAME":"STARLINK-3694","ECCENTRICITY":"0.00013790","TIME_SYSTEM":"UTC","NORAD_CAT_ID":"51957","MEAN_ANOMALY":"275.7920","MEAN_MOTION_DOT":"0.00003956","CENTER_NAME":"EARTH","FILE":"3767525","LAUNCH_DATE":"2022-03-09","DECAY_DATE":null,"PERIAPSIS":"538.770","ARG_OF_PERICENTER":"84.3230","CLASSIFICATION_TYPE":"U","ELEMENT_SET_NO":"999","REV_AT_EPOCH":"5026","INCLINATION":"53.2167","MEAN_ELEMENT_THEORY":"SGP4","REF_FRAME":"TEME","BSTAR":"0.00026646000000","SEMIMAJOR_AXIS":"6917.859","MEAN_MOTION_DDOT":"0.0000000000000","SITE":"AFETR","EPHEMERIS_TYPE":"0","RA_OF_ASC_NODE":"72.0685","OBJECT_ID":"2022-025B","TLE_LINE2":"2 51957  53.2167  72.0685 0001379  84.3230 275.7920 15.08846972 50266","GP_ID":"224198274"},{"MEAN_MOTION_DOT":"0.00002909","CENTER_NAME":"EARTH","FILE":"3767525","LAUNCH_DATE":"2022-03-09","DECAY_DATE":null,"PERIAPSIS":"538.961","ARG_OF_PERICENTER":"64.7639","CLASSIFICATION_TYPE":"U","ELEMENT_SET_NO":"999","MEAN_ELEMENT_THEORY":"SGP4","REV_AT_EPOCH":"5025","INCLINATION":"53.2161","SEMIMAJOR_AXIS":"6917.845","REF_FRAME":"TEME","BSTAR":"0.00020074000000","MEAN_MOTION_DDOT":"0.0000000000000","EPHEMERIS_TYPE":"0","SITE":"AFETR","RA_OF_ASC_NODE":"72.3026","OBJECT_ID":"2022-025C","TLE_LINE2":"2 51958  53.2161  72.3026 0001082  64.7639 295.3465 15.08851631 50258","GP_ID":"224199024","COUNTRY_CODE":"US","EPOCH":"2023-02-01T08:54:15.912000","TLE_LINE1":"1 51958U 22025C   23032.37101750  .00002909  00000-0  20074-3 0  9999","RCS_SIZE":"LARGE","APOAPSIS":"540.458","OBJECT_TYPE":"PAYLOAD","PERIOD":"95.437","MEAN_MOTION":"15.08851631","OBJECT_NAME":"STARLINK-3692","TIME_SYSTEM":"UTC","ECCENTRICITY":"0.00010820","NORAD_CAT_ID":"51958","MEAN_ANOMALY":"295.3465"},{"OBJECT_NAME":"STARLINK-3704","MEAN_MOTION":"15.08844253","PERIOD":"95.437","MEAN_ANOMALY":"274.4289","NORAD_CAT_ID":"51959","ECCENTRICITY":"0.00015580","TIME_SYSTEM":"UTC","TLE_LINE1":"1 51959U 22025D   23032.42622348  .00001949  00000-0  14047-3 0  9993","COUNTRY_CODE":"US","EPOCH":"2023-02-01T10:13:45.708672","APOAPSIS":"540.810","OBJECT_TYPE":"PAYLOAD","RCS_SIZE":"LARGE","SITE":"AFETR","EPHEMERIS_TYPE":"0","MEAN_MOTION_DDOT":"0.0000000000000","SEMIMAJOR_AXIS":"6917.867","REF_FRAME":"TEME","BSTAR":"0.00014047000000","GP_ID":"224197772","TLE_LINE2":"2 51959  53.2174  72.0439 0001558  85.6881 274.4289 15.08844253 50262","RA_OF_ASC_NODE":"72.0439","OBJECT_ID":"2022-025D","ARG_OF_PERICENTER":"85.6881","DECAY_DATE":null,"PERIAPSIS":"538.655","CENTER_NAME":"EARTH","FILE":"3767525","LAUNCH_DATE":"2022-03-09","MEAN_MOTION_DOT":"0.00001949","MEAN_ELEMENT_THEORY":"SGP4","REV_AT_EPOCH":"5026","INCLINATION":"53.2174","ELEMENT_SET_NO":"999","CLASSIFICATION_TYPE":"U"}];
